STARLINK-32033          
1 60144U 24120K   26170.91668981  .00046625  00000+0  13832-2 0  9999
2 60144  53.1582 204.8163 0001295  73.5697 210.3082 15.34384661  5810
STARLINK-32029          
1 60145U 24120L   26170.36519937 -.00000138  00000+0  70365-5 0  9992
2 60145  53.1597 206.9089 0001189  77.7508 282.3627 15.34394435111953
STARLINK-32127          
1 60146U 24120M   26170.36100389 -.00001248  00000+0 -25830-4 0  9990
2 60146  53.1600 206.8821 0001241  98.0826 262.0318 15.34381557111953
STARLINK-32019          
1 60147U 24120N   26170.36310522 -.00000299  00000+0  22883-5 0  9993
2 60147  53.1599 206.8973 0001283  94.6181 265.4968 15.34385363111958
STARLINK-32021          
1 60148U 24120P   26170.32277913 -.00001051  00000+0 -22116-4 0  9992
2 60148  53.1596 197.4028 0000963  78.8371 281.2738 15.31695775112164
STARLINK-32022          
1 60149U 24120Q   26170.38412524  .00001475  00000+0  54753-4 0  9998
2 60149  53.1599 207.0243 0001063  81.8958 278.2165 15.34406822112034
STARLINK-32014          
1 60150U 24120R   26170.40308579 -.00002926  00000+0 -75519-4 0  9994
2 60150  53.1608 207.1418 0000862  84.2032 275.9069 15.34398388111952
STARLINK-32004          
1 60151U 24120S   26170.39676516 -.00000263  00000+0  33629-5 0  9990
2 60151  53.1610 207.1026 0001123  80.5816 279.5314 15.34391934112034
STARLINK-32147          
1 60152U 24120T   26170.32111855 -.00003310  00000+0 -86945-4 0  9999
2 60152  53.1594 207.3438 0001266  71.2679 288.8461 15.34373824111940
STARLINK-32131          
1 60153U 24120U   26170.35889788 -.00000127  00000+0  73688-5 0  9993
2 60153  53.1597 206.8689 0001143  90.5779 269.5355 15.34386944112031
STARLINK-32145          
1 60154U 24120V   26170.35679058 -.00000604  00000+0 -67565-5 0  9999
2 60154  53.1601 206.8530 0001217  88.8956 271.2187 15.34387350111957
STARLINK-32137          
1 60155U 24120W   26170.37782878 -.00000484  00000+0 -31809-5 0  9995
2 60155  53.1595 206.9850 0001093  81.8640 278.2486 15.34392131111953
STARLINK-32048          
1 60156U 24120X   26170.37151937 -.00001040  00000+0 -19671-4 0  9993
2 60156  53.1593 206.9455 0001089  77.2676 282.8448 15.34388335111956
STARLINK-32129          
1 60157U 24120Y   26170.37362287 -.00000564  00000+0 -55594-5 0  9991
2 60157  53.1596 206.9606 0001084  77.1259 282.9865 15.34390396112033
STARLINK-11168 [DTC]    
1 60183U 24124A   26170.74176306  .00000242  00000+0  68556-5 0  9993
2 60183  53.1588  18.0998 0000849  60.6859 299.4244 15.69710003113753
STARLINK-11187 [DTC]    
1 60184U 24124B   26170.73684820  .00001437  00000+0  16706-4 0  9994
2 60184  53.1590  18.0620 0000855  87.1314 272.9802 15.69719330112562
STARLINK-11180 [DTC]    
1 60185U 24124C   26170.79562044  .00000071  00000+0  54384-5 0  9992
2 60185  53.1583  17.7157 0000738  95.3371 264.7731 15.69711832112570
STARLINK-11197 [DTC]    
1 60186U 24124D   26170.79069965  .00004956  00000+0  45720-4 0  9996
2 60186  53.1590  17.6829 0000692  77.0327 283.0768 15.69718012112572
STARLINK-11194 [DTC]    
1 60187U 24124E   26170.78581077  .00000051  00000+0  52739-5 0  9990
2 60187  53.1588  17.6484 0000710  98.2101 261.8998 15.69708661112571
STARLINK-11189 [DTC]    
1 60188U 24124F   26170.78100508 -.00000073  00000+0  42505-5 0  9992
2 60188  53.1591  18.3504 0000911  80.3778 279.7343 15.69714058112560
STARLINK-11183 [DTC]    
1 60189U 24124G   26170.77610109  .00000859  00000+0  11951-4 0  9996
2 60189  53.1601  18.3196 0001167  82.8686 277.2465 15.69711297112569
STARLINK-11179 [DTC]    
1 60190U 24124H   26170.77120053 -.00002913  00000+0 -19179-4 0  9997
2 60190  53.1601  18.2815 0000971  68.9211 291.1910 15.69725363112568
STARLINK-11175 [DTC]    
1 60191U 24124J   26170.76628914  .00000873  00000+0  12057-4 0  9995
2 60191  53.1595  18.2532 0000878  93.3871 266.7248 15.69712594112561
STARLINK-11173 [DTC]    
1 60192U 24124K   26170.95239146  .00000065  00000+0  53902-5 0  9990
2 60192  53.1596  17.2800 0000988  76.3622 283.7506 15.69712752112592
STARLINK-11172 [DTC]    
1 60193U 24124L   26170.94748931 -.00000709  00000+0 -99290-6 0  9995
2 60193  53.1600  17.2484 0001120  72.6575 287.4566 15.69710539112590
STARLINK-11152 [DTC]    
1 60194U 24124M   26170.94258150  .00001146  00000+0  14312-4 0  9999
2 60194  53.1592  17.2105 0000922  77.7622 282.3499 15.69712033113781
STARLINK-11193 [DTC]    
1 60195U 24124N   26170.74666702  .00002264  00000+0  23541-4 0  9990
2 60195  53.1593  18.1199 0000889  84.6374 275.4746 15.69702716112569
STARLINK-31869          
1 60196U 24124P   26170.38638110 -.00000279  00000+0  27699-5 0  9997
2 60196  53.1594 209.5819 0001194  77.9558 282.1577 15.31702055109877
STARLINK-32023          
1 60197U 24124Q   26170.37835321 -.00000909  00000+0 -15774-4 0  9991
2 60197  53.1593 208.8244 0001145  97.6857 262.4276 15.34389452109881
STARLINK-32046          
1 60198U 24124R   26170.40505190 -.00000928  00000+0 -18140-4 0  9995
2 60198  53.1596 209.6942 0001179  91.7646 268.3490 15.31702407111104
