OBJECT_NAME,OBJECT_ID,EPOCH,MEAN_MOTION,ECCENTRICITY,INCLINATION,RA_OF_ASC_NODE,ARG_OF_PERICENTER,MEAN_ANOMALY,EPHEMERIS_TYPE,CLASSIFICATION_TYPE,NORAD_CAT_ID,ELEMENT_SET_NO,REV_AT_EPOCH,BSTAR,MEAN_MOTION_DOT,MEAN_MOTION_DDOT
STARLINK-32033,2024-120K,2026-06-19T22:00:01.999584,15.34384661,.00012953,53.1582,204.8163,73.5697,210.3082,0,U,60144,999,581,.13831983E-2,.46625E-3,0
STARLINK-32029,2024-120L,2026-06-19T08:45:53.225568,15.34394435,.00011898,53.1597,206.9089,77.7508,282.3627,0,U,60145,999,11195,.7036549E-5,-.138E-5,0
STARLINK-32127,2024-120M,2026-06-19T08:39:50.736096,15.34381557,.00012417,53.1600,206.8821,98.0826,262.0318,0,U,60146,999,11195,-.25830256E-4,-.1248E-4,0
STARLINK-32019,2024-120N,2026-06-19T08:42:52.291008,15.34385363,.00012831,53.1599,206.8973,94.6181,265.4968,0,U,60147,999,11195,.2288331E-5,-.299E-5,0
STARLINK-32021,2024-120P,2026-06-19T07:44:48.116832,15.31695775,.00009635,53.1596,197.4028,78.8371,281.2738,0,U,60148,999,11216,-.22115846E-4,-.1051E-4,0
STARLINK-32022,2024-120Q,2026-06-19T09:13:08.420736,15.34406822,.00010632,53.1599,207.0243,81.8958,278.2165,0,U,60149,999,11203,.54753157E-4,.1475E-4,0
STARLINK-32014,2024-120R,2026-06-19T09:40:26.612256,15.34398388,.0000862,53.1608,207.1418,84.2032,275.9069,0,U,60150,999,11195,-.75518915E-4,-.2926E-4,0
STARLINK-32004,2024-120S,2026-06-19T09:31:20.509824,15.34391934,.0001123,53.1610,207.1026,80.5816,279.5314,0,U,60151,999,11203,.3362941E-5,-.263E-5,0
STARLINK-32147,2024-120T,2026-06-19T07:42:24.642720,15.34373824,.00012661,53.1594,207.3438,71.2679,288.8461,0,U,60152,999,11194,-.86945127E-4,-.331E-4,0
STARLINK-32131,2024-120U,2026-06-19T08:36:48.776832,15.34386944,.00011435,53.1597,206.8689,90.5779,269.5355,0,U,60153,999,11203,.7368768E-5,-.127E-5,0
STARLINK-32145,2024-120V,2026-06-19T08:33:46.706112,15.34387350,.00012178,53.1601,206.8530,88.8956,271.2187,0,U,60154,999,11195,-.6756544E-5,-.604E-5,0
STARLINK-32137,2024-120W,2026-06-19T09:04:04.406592,15.34392131,.00010935,53.1595,206.9850,81.8640,278.2486,0,U,60155,999,11195,-.3180866E-5,-.484E-5,0
STARLINK-32048,2024-120X,2026-06-19T08:54:59.273568,15.34388335,.00010894,53.1593,206.9455,77.2676,282.8448,0,U,60156,999,11195,-.19670624E-4,-.104E-4,0
STARLINK-32129,2024-120Y,2026-06-19T08:58:01.015968,15.34390396,.00010846,53.1596,206.9606,77.1259,282.9865,0,U,60157,999,11203,-.5559371E-5,-.564E-5,0
STARLINK-11168 [DTC],2024-124A,2026-06-19T17:48:08.328384,15.69710003,.00008495,53.1588,18.0998,60.6859,299.4244,0,U,60183,999,11375,.6855575E-5,.242E-5,0
STARLINK-11187 [DTC],2024-124B,2026-06-19T17:41:03.684480,15.69719330,.00008553,53.1590,18.0620,87.1314,272.9802,0,U,60184,999,11256,.16705764E-4,.1437E-4,0
STARLINK-11180 [DTC],2024-124C,2026-06-19T19:05:41.606016,15.69711832,.00007385,53.1583,17.7157,95.3371,264.7731,0,U,60185,999,11257,.5438376E-5,.71E-6,0
STARLINK-11197 [DTC],2024-124D,2026-06-19T18:58:36.449760,15.69718012,.00006924,53.1590,17.6829,77.0327,283.0768,0,U,60186,999,11257,.45719543E-4,.4956E-4,0
STARLINK-11194 [DTC],2024-124E,2026-06-19T18:51:34.050528,15.69708661,.00007109,53.1588,17.6484,98.2101,261.8998,0,U,60187,999,11257,.5273868E-5,.51E-6,0
STARLINK-11189 [DTC],2024-124F,2026-06-19T18:44:38.838912,15.69714058,.00009118,53.1591,18.3504,80.3778,279.7343,0,U,60188,999,11256,.4250469E-5,-.73E-6,0
STARLINK-11183 [DTC],2024-124G,2026-06-19T18:37:35.134176,15.69711297,.00011673,53.1601,18.3196,82.8686,277.2465,0,U,60189,999,11256,.11951163E-4,.859E-5,0
STARLINK-11179 [DTC],2024-124H,2026-06-19T18:30:31.725792,15.69725363,.00009715,53.1601,18.2815,68.9211,291.1910,0,U,60190,999,11256,-.19179249E-4,-.2913E-4,0
STARLINK-11175 [DTC],2024-124J,2026-06-19T18:23:27.381696,15.69712594,.00008787,53.1595,18.2532,93.3871,266.7248,0,U,60191,999,11256,.12057044E-4,.873E-5,0
STARLINK-11173 [DTC],2024-124K,2026-06-19T22:51:26.622144,15.69712752,.00009885,53.1596,17.2800,76.3622,283.7506,0,U,60192,999,11259,.5390211E-5,.65E-6,0
STARLINK-11172 [DTC],2024-124L,2026-06-19T22:44:23.076384,15.69710539,.000112,53.1600,17.2484,72.6575,287.4566,0,U,60193,999,11259,-.992897E-6,-.709E-5,0
STARLINK-11152 [DTC],2024-124M,2026-06-19T22:37:19.041600,15.69712033,.00009227,53.1592,17.2105,77.7622,282.3499,0,U,60194,999,11378,.14311934E-4,.1146E-4,0
STARLINK-11193 [DTC],2024-124N,2026-06-19T17:55:12.030528,15.69702716,.00008891,53.1593,18.1199,84.6374,275.4746,0,U,60195,999,11256,.23540642E-4,.2264E-4,0
STARLINK-31869,2024-124P,2026-06-19T09:16:23.327040,15.31702055,.00011942,53.1594,209.5819,77.9558,282.1577,0,U,60196,999,10987,.2769914E-5,-.279E-5,0
STARLINK-32023,2024-124Q,2026-06-19T09:04:49.717344,15.34389452,.00011456,53.1593,208.8244,97.6857,262.4276,0,U,60197,999,10988,-.15774007E-4,-.909E-5,0
STARLINK-32046,2024-124R,2026-06-19T09:43:16.484160,15.31702407,.00011799,53.1596,209.6942,91.7646,268.3490,0,U,60198,999,11110,-.18139645E-4,-.928E-5,0
